IRIDIUM 7               
1 24793U 97020B   25287.26571353  .00000481  00000+0  15894-3 0  9991
2 24793  86.3935 127.0472 0002465  87.9440 272.2039 14.36030490488985
IRIDIUM 5               
1 24795U 97020D   25287.32941929  .00006251  00000+0  49616-3 0  9990
2 24795  86.3918  28.7242 0108077  70.8938 290.3957 14.95723592503265
IRIDIUM 4               
1 24796U 97020E   25287.24415818  .00000503  00000+0  16350-3 0  9998
2 24796  86.3925 123.8538 0002235  89.9652 270.1801 14.36932612489562
IRIDIUM 914             
1 24836U 97030A   25287.12214071  .00000532  00000+0  15952-3 0  9998
2 24836  86.3921 132.1566 0002465 126.6480 233.4946 14.40980084624250
IRIDIUM 16              
1 24841U 97030F   25287.19125836  .00000438  00000+0  13616-3 0  9991
2 24841  86.4065 155.3369 0003913  60.6200 299.5389 14.38809764484115
IRIDIUM 911             
1 24842U 97030G   25287.13995231  .00000676  00000+0  17716-3 0  9999
2 24842  86.4487 153.9998 0016186  64.4004 295.8870 14.47787180492295
IRIDIUM 17              
1 24870U 97034B   25287.11207179  .00000574  00000+0  18368-3 0  9990
2 24870  86.4026 184.7829 0002550  44.0475 316.0925 14.37946396480677
IRIDIUM 920             
1 24871U 97034C   25287.19644341  .00000549  00000+0  16251-3 0  9996
2 24871  86.4022 163.7300 0013366  54.7307 305.5142 14.41649115483721
